FID,Type,Source,Verified,Name,Prefix,House_Numb,Unit_Type,Unit_Numbe,Street_Nam,Street_Typ,City,State,Zip,Stop_ID,X_Coord,Y_Coord,Lat,Lon
0,Residential Addresses,MAF Fixes, , ,SW,1800, , ,1st,Ave,Portland,OR,97201.000000000000000, ,7644033.701000000400000,679599.112899999950000,45.5101267374999,-122.677184741579
1,Residential Addresses,MAF Fixes, , ,N,4134, , ,Vancouver,Ave,Portland,OR,97217.000000000000000, ,7646985.992999999800000,695516.804099999950000,45.5539855741418,-122.667338011258
2,Residential Addresses,MAF Fixes, , ,SW,1400, , ,5th,Ave,Portland,OR,97201.000000000000000, ,7643403.707000000400000,680907.077099999990000,45.5136661791028,-122.679778989004
3,Residential Addresses,MAF Fixes, , ,SW,1000, , , ,Broadway,Portland,OR,97205.000000000000000, ,7643235.847000000100000,682101.029899999960000,45.5169271956212,-122.680559281529
4,Residential Addresses,MAF Fixes, , ,E,14715, , ,Burnside,St,Portland,OR,97233.000000000000000, ,7686505.463999999700000,683026.329999999960000,45.5225429666983,-122.511893715616
5,Residential Addresses,MAF Fixes, , ,NE,30, , ,147th,Ave,Portland,OR,97230.000000000000000, ,7686522.637000000100000,683172.368000000020000,45.5229445499993,-122.511840920221
6,Residential Addresses,MAF Fixes, , ,SW,1220, , ,3rd,Ave,Portland,OR,97204.000000000000000, ,7644104.404000000100000,681181.073199999980000,45.5144692023076,-122.677075310201
7,Residential Addresses,MAF Fixes, , ,NE,825, , ,Multnomah,St,Portland,OR,97232.000000000000000, ,7649270.383999999600000,687642.832999999980000,45.5325653749314,-122.657602470586
8,Residential Addresses,MAF Fixes, , ,SW,1831, , ,River,Dr,Portland,OR,97201.000000000000000, ,7644989.376000000200000,679063.537999999940000,45.5087289216744,-122.673401968246
9,Residential Addresses,MAF Fixes, , ,SW,5550, , ,Macadam,Ave,Portland,OR,97239.000000000000000, ,7644830.440999999600000,670018.545000000040000,45.4839185162541,-122.673072821132
10,Residential Addresses,MAF Fixes, , ,SW,522, , ,5th,Ave,Portland,OR,97204.000000000000000, ,7644230.716000000000000,683043.215899999950000,45.5195839417181,-122.676778434886
11,Residential Addresses,MAF Fixes, , ,NE,507, , ,47th,Ave,Portland,OR,97213.000000000000000, ,7659918.860000000300000,685235.234900000040000,45.5267367516159,-122.615816374569
12,Residential Addresses,MAF Fixes, , ,NE,17721, , ,Riverside,Pkwy,Portland,OR,97230.000000000000000, ,7694867.961000000100000,694783.667000000020000,45.5553461478077,-122.480400065256
13,Residential Addresses,MAF Fixes, , ,SW,111, , ,5th,Ave,Portland,OR,97204.000000000000000, ,7644393.693000000000000,684036.023000000040000,45.5223179424447,-122.676247138771
14,Residential Addresses,MAF Fixes, , ,SW,2828, , ,Corbett,Ave,Portland,OR,97201.000000000000000, ,7644519.639000000400000,676790.507899999970000,45.5024623001016,-122.674994955391
15,Residential Addresses,MAF Fixes, , ,SE,12004, , ,Sunnyside,Rd,Clackamas,OR,97015.000000000000000, ,7678276.000000000000000,649172.250000000000000,45.4291542146457,-122.540656253411
16,Residential Addresses,MAF Fixes, , ,NE,600, , ,Grand,Ave,Portland,OR,97232.000000000000000, ,7648534.500000000000000,685688.560000000060000,45.5271534372191,-122.660269241979
17,Residential Addresses,MAF Fixes, , ,SE,3756, , ,Oak,St,Portland,OR,97214.000000000000000, ,7657596.000000000000000,682792.060000000060000,45.5198710532444,-122.624626301317
18,Residential Addresses,MAF Fixes, , ,N,700, , ,Rosa Parks,Way,Portland,OR,97217.000000000000000, ,7645530.000000000000000,701225.699999999950000,45.5695301231692,-122.673619458717
19,Residential Addresses,MAF Fixes, , ,SW,7600, , ,Dartmouth,St,Tigard,OR,97223.000000000000000, ,7623280.500000000000000,651713.300000000050000,45.4321115605602,-122.755072085289
20,Residential Addresses,MAF Fixes, , ,N,4204, , ,Mississippi,Ave,Portland,OR,97217.000000000000000, ,7644931.000000000000000,695556.699999999950000,45.5539434958732,-122.675361670776
21,Residential Addresses,MAF Fixes, , ,SE,1740, , ,Ochoco,St,Milwaukie,OR,97222.000000000000000, ,7651601.000000000000000,660257.099999999980000,45.4576514981677,-122.645672807364
22,Residential Addresses,MAF Fixes, , ,NE,9955, , ,Glisan,St,Portland,OR,97220.000000000000000, ,7673873.000000000000000,684710.000000000000000,45.5262859588688,-122.561333145634
23,Residential Addresses,MAF Fixes, , , ,4001, , ,Southwest Canyon,Road,Portland,OR,97221.000000000000000, ,7634112.000000000000000,679911.000000000000000,45.5102420771297,-122.715906428901
24,Residential Addresses,MAF Fixes, , ,SE,3027, , ,20th,Ave,Portland,OR,97202.000000000000000, ,7651896.966000000000000,676053.814999999940000,45.5009835437301,-122.646154964834
25,Residential Addresses,MAF Fixes, , ,SE,3031, , ,20th,Ave,Portland,OR,97202.000000000000000, ,7651896.966000000000000,676053.814999999940000,45.5009835437301,-122.646154964834
26,Residential Addresses,MAF Fixes, , ,SE,3033, , ,20th,Ave,Portland,OR,97202.000000000000000, ,7651896.966000000000000,676053.814999999940000,45.5009835437301,-122.646154964834
27,Residential Addresses,MAF Fixes, , ,SE,3035, , ,20th,Ave,Portland,OR,97202.000000000000000, ,7651896.966000000000000,676053.814999999940000,45.5009835437301,-122.646154964834
28,Residential Addresses,MAF Fixes, , ,SE,3073, , ,20th,Ave,Portland,OR,97202.000000000000000, ,7651896.966000000000000,676053.814999999940000,45.5009835437301,-122.646154964834
29,Residential Addresses,MAF Fixes, , ,SE,3075, , ,20th,Ave,Portland,OR,97202.000000000000000, ,7651896.966000000000000,676053.814999999940000,45.5009835437301,-122.646154964834
30,Residential Addresses,MAF Fixes, , ,SE,3083, , ,20th,Ave,Portland,OR,97202.000000000000000, ,7651896.966000000000000,676053.814999999940000,45.5009835437301,-122.646154964834
31,Residential Addresses,MAF Fixes, , ,SE,1903, , ,Tibbetts,St,Portland,OR,97202.000000000000000, ,7651896.966000000000000,676053.814999999940000,45.5009835437301,-122.646154964834
32,Residential Addresses,MAF Fixes, , ,SE,1905, , ,Tibbetts,St,Portland,OR,97202.000000000000000, ,7651896.966000000000000,676053.814999999940000,45.5009835437301,-122.646154964834
33,Residential Addresses,MAF Fixes, , ,SE,1907, , ,Tibbetts,St,Portland,OR,97202.000000000000000, ,7651896.966000000000000,676053.814999999940000,45.5009835437301,-122.646154964834
34,Residential Addresses,MAF Fixes, , ,SE,1909, , ,Tibbetts,St,Portland,OR,97202.000000000000000, ,7651896.966000000000000,676053.814999999940000,45.5009835437301,-122.646154964834
35,Residential Addresses,MAF Fixes, , ,SE,1911, , ,Tibbetts,St,Portland,OR,97202.000000000000000, ,7651896.966000000000000,676053.814999999940000,45.5009835437301,-122.646154964834
36,Residential Addresses,MAF Fixes, , ,SE,1913, , ,Tibbetts,St,Portland,OR,97202.000000000000000, ,7651896.966000000000000,676053.814999999940000,45.5009835437301,-122.646154964834
37,Residential Addresses,MAF Fixes, , ,SE,1915, , ,Tibbetts,St,Portland,OR,97202.000000000000000, ,7651896.966000000000000,676053.814999999940000,45.5009835437301,-122.646154964834
38,Residential Addresses,MAF Fixes, , ,SE,1917, , ,Tibbetts,St,Portland,OR,97202.000000000000000, ,7651896.966000000000000,676053.814999999940000,45.5009835437301,-122.646154964834
39,Residential Addresses,MAF Fixes, , ,E,422, , ,Burnside,St,Portland,OR,97214.000000000000000, ,7648255.500000000000000,684085.800000000050000,45.5227387000753,-122.661190234275
40,Residential Addresses,MAF Fixes, , ,NW,3480, , ,Industrial,St,Portland,OR,97210.000000000000000, ,7633838.000000000000000,691156.400000000020000,45.5410522925256,-122.718179094351
41,Residential Addresses,MAF Fixes, , ,NW,311, , ,12th,Ave,Portland,OR,97209.000000000000000, ,7642557.000000000000000,685170.000000000000000,45.525291036127,-122.683530251892
42,Residential Addresses,MAF Fixes, , ,SE,12133, , ,80th,Ave,Portland,OR,97222.000000000000000, ,7667979.000000000000000,651714.000000000000000,45.435402985102,-122.581007628032
43,Residential Addresses,MAF Fixes, , ,SE,3421, , ,Salmon,St,Portland,OR,97214.000000000000000, ,7656459.292999999600000,681054.601999999960000,45.5150253558058,-122.628881022984
44,Residential Addresses,MAF Fixes, , ,SW,14255, , ,6th,St,Beaverton,OR,97005.000000000000000, ,7606195.500000000000000,670667.500000000000000,45.4827491319834,-122.823722240687
45,Residential Addresses,MAF Fixes, , ,SE,16317, , ,82nd,Dr,Clackamas,OR,97015.000000000000000, ,7670483.000000000000000,640134.000000000000000,45.4038288350718,-122.570100198879
46,Residential Addresses,MAF Fixes, , ,SE,7368, , ,Division,St,Portland,OR,97206.000000000000000, ,7667089.000000000000000,677133.000000000000000,45.5050338832144,-122.587031428077
47,Residential Addresses,MAF Fixes, , ,NW,1130, , ,22nd,Ave,Portland,OR,97210.000000000000000, ,7639365.146999999900000,687362.157200000020000,45.5310639350065,-122.696212343529
48,Residential Addresses,MAF Fixes, , ,SE,4701, , ,24th,Ave,Portland,OR,97202.000000000000000, ,7652769.867999999800000,671444.270000000020000,45.4884089478334,-122.642275008255
49,Residential Addresses,MAF Fixes, , ,SW,2716, , ,Beaverton Hillsdale,Hwy,Portland,OR,97239.000000000000000, ,7636592.500000000000000,668886.199999999950000,45.4802018406501,-122.705060367597
50,Residential Addresses,MAF Fixes, , ,NW,1739, , ,Couch,St,Portland,OR,97209.000000000000000, ,7641224.500000000000000,684689.000000000000000,45.5238734159666,-122.68867675178
51,Residential Addresses,MAF Fixes, , ,SE,10955, , ,Jennifer,St,Clackamas,OR,97015.000000000000000, ,7676800.125000000000000,639974.593800000030000,45.4038330301255,-122.54549635858
52,Residential Addresses,MAF Fixes, , ,SE,2243, , ,Division,St,Portland,OR,97202.000000000000000, ,7652878.625000000000000,677494.093800000030000,45.5050038421346,-122.64247659014
53,Residential Addresses,MAF Fixes, , ,SE,1523, , ,162nd,Ave,Portland,OR,97233.000000000000000, ,7689999.000000000000000,679181.500000000000000,45.5122388322162,-122.497896277675
54,Residential Addresses,MAF Fixes, , ,NE,1231, , ,Broadway,St,Portland,OR,97232.000000000000000, ,7650450.000000000000000,688595.000000000000000,45.5352622229493,-122.653099817267
55,Residential Addresses,MAF Fixes, , ,SW,841, , ,Gaines,St,Portland,OR,97239.000000000000000, ,7646021.256000000100000,674676.168999999990000,45.4967761207387,-122.668918940676
56,Residential Addresses,MAF Fixes, , ,SE,216, , ,103rd,Ave,Portland,OR,97216.000000000000000, ,7675029.500000000000000,682686.000000000000000,45.5208174173722,-122.556620994503
57,Residential Addresses,MAF Fixes, , ,SE,1322, , ,Water,Ave,Portland,OR,97214.000000000000000, ,7647012.500000000000000,680604.250000000000000,45.5131020717715,-122.665674214803
58,Residential Addresses,MAF Fixes, , ,SE,1508, , ,21st,Ave,Portland,OR,97214.000000000000000, ,7652588.000000000000000,680013.000000000000000,45.5118888370326,-122.643870452205
59,Residential Addresses,MAF Fixes, , ,SE,4105, , ,International,Way,Milwaukie,OR,97222.000000000000000, ,7657862.000000000000000,653600.400000000020000,45.4398536803082,-122.620599784862
60,Residential Addresses,MAF Fixes, , ,NE,3268, , ,Emerson,St,Portland,OR,97211.000000000000000, ,7656358.000000000000000,697943.550000000050000,45.5613226191595,-122.631013729635
61,Residential Addresses,MAF Fixes, , ,NE,5330, , ,Glisan,St,Portland,OR,97213.000000000000000, ,7661807.769999999600000,685012.841900000000000,45.5262624319107,-122.608425766727
62,Residential Addresses,MAF Fixes, , ,N,9345, , ,Fiske,Ave,Portland,OR,97203.000000000000000, ,7634623.250000000000000,709110.050000000050000,45.5903332565615,-122.717038112562
63,Residential Addresses,MAF Fixes, , ,N,9349, , ,Fiske,Ave,Portland,OR,97203.000000000000000, ,7634617.000000000000000,709122.050000000050000,45.5903656852797,-122.717063804251
64,Residential Addresses,MAF Fixes, , ,N,9333, , ,Fiske,Ave,Portland,OR,97203.000000000000000, ,7634615.500000000000000,709058.800000000050000,45.5901921669873,-122.717062882147
65,Residential Addresses,MAF Fixes, , ,N,9337, , ,Fiske,Ave,Portland,OR,97203.000000000000000, ,7634615.500000000000000,709077.300000000050000,45.5902428863578,-122.717064865056
66,Residential Addresses,MAF Fixes, , ,N,9341, , ,Fiske,Ave,Portland,OR,97203.000000000000000, ,7634621.250000000000000,709094.300000000050000,45.5902899260523,-122.717044234173
67,Residential Addresses,MAF Fixes, , ,N,9321, , ,Fiske,Ave,Portland,OR,97203.000000000000000, ,7634618.250000000000000,708992.750000000000000,45.590011292066,-122.717045064306
68,Residential Addresses,MAF Fixes, , ,N,9313, , ,Fiske,Ave,Portland,OR,97203.000000000000000, ,7634616.500000000000000,708960.000000000000000,45.5899213733723,-122.717048387552
69,Residential Addresses,MAF Fixes, , ,N,9309, , ,Fiske,Ave,Portland,OR,97203.000000000000000, ,7634617.000000000000000,708940.500000000000000,45.5898679500351,-122.717044345064
70,Residential Addresses,MAF Fixes, , ,N,9305, , ,Fiske,Ave,Portland,OR,97203.000000000000000, ,7634614.500000000000000,708923.500000000000000,45.5898211549079,-122.717052285062
71,Residential Addresses,MAF Fixes, , ,N,9325, , ,Fiske,Ave,Portland,OR,97203.000000000000000, ,7634615.500000000000000,709004.000000000000000,45.5900419279823,-122.717057008469
72,Residential Addresses,MAF Fixes, , ,N,9133, , ,Fiske,Ave,Portland,OR,97203.000000000000000, ,7634603.500000000000000,708687.500000000000000,45.5891733123054,-122.717069942924
73,Residential Addresses,MAF Fixes, , ,N,9121, , ,Fiske,Ave,Portland,OR,97203.000000000000000, ,7634606.000000000000000,708640.500000000000000,45.5890446457787,-122.717055143385
74,Residential Addresses,MAF Fixes, , ,N,9125, , ,Fiske,Ave,Portland,OR,97203.000000000000000, ,7634606.000000000000000,708658.500000000000000,45.5890939943728,-122.717057072657
75,Residential Addresses,MAF Fixes, , ,N,9129, , ,Fiske,Ave,Portland,OR,97203.000000000000000, ,7634606.500000000000000,708675.500000000000000,45.5891406390042,-122.717056942352
76,Residential Addresses,MAF Fixes, , ,N,9117, , ,Fiske,Ave,Portland,OR,97203.000000000000000, ,7634604.500000000000000,708621.000000000000000,45.588991071921,-122.71705891052
77,Residential Addresses,MAF Fixes, , ,N,9105, , ,Fiske,Ave,Portland,OR,97203.000000000000000, ,7634602.500000000000000,708558.400000000020000,45.5888192979621,-122.717060010508
78,Residential Addresses,MAF Fixes, , ,N,4902, , ,Trenton,St,Portland,OR,97203.000000000000000, ,7634602.500000000000000,708460.300000000050000,45.588550348093,-122.717049496057
79,Residential Addresses,MAF Fixes, , ,N,9637, , ,Fiske,Ave,Portland,OR,97203.000000000000000, ,7634708.750000000000000,709808.699999999950000,45.5922550999317,-122.716779120482
80,Residential Addresses,MAF Fixes, , ,N,9641, , ,Fiske,Ave,Portland,OR,97203.000000000000000, ,7634705.250000000000000,709820.699999999950000,45.5922877356111,-122.716794074113
81,Residential Addresses,MAF Fixes, , ,N,9645, , ,Fiske,Ave,Portland,OR,97203.000000000000000, ,7634707.250000000000000,709834.699999999950000,45.592326268305,-122.71678776454
82,Residential Addresses,MAF Fixes, , ,N,9649, , ,Fiske,Ave,Portland,OR,97203.000000000000000, ,7634706.500000000000000,709851.060000000060000,45.5923710642199,-122.716792446685
83,Residential Addresses,MAF Fixes, , ,N,9332, , ,Dwight,Ave,Portland,OR,97203.000000000000000, ,7635194.750000000000000,709144.189999999940000,45.5904698396814,-122.714810129858
84,Residential Addresses,MAF Fixes, , ,N,9336, , ,Dwight,Ave,Portland,OR,97203.000000000000000, ,7635189.500000000000000,709163.439999999940000,45.5905222205968,-122.714832691752
85,Residential Addresses,MAF Fixes, , ,N,9340, , ,Dwight,Ave,Portland,OR,97203.000000000000000, ,7635186.500000000000000,709178.689999999940000,45.5905638043009,-122.714846039361
86,Residential Addresses,MAF Fixes, , ,N,9344, , ,Dwight,Ave,Portland,OR,97203.000000000000000, ,7635182.500000000000000,709191.939999999940000,45.5905998296456,-122.714863077731
87,Residential Addresses,MAF Fixes, , ,N,9348, , ,Dwight,Ave,Portland,OR,97203.000000000000000, ,7635177.750000000000000,709208.939999999940000,45.5906460795625,-122.714883446346
88,Residential Addresses,MAF Fixes, , ,N,9352, , ,Dwight,Ave,Portland,OR,97203.000000000000000, ,7635174.500000000000000,709226.439999999940000,45.5906938130399,-122.714898011179
89,Residential Addresses,MAF Fixes, , ,NE,1721, , ,108th,Ave,Portland,OR,97220.000000000000000, ,7676365.000000000000000,687900.000000000000000,45.5352062038797,-122.551928744913
90,Residential Addresses,MAF Fixes, , ,SE,6021, , ,72nd,Ave,Portland,OR,97206.000000000000000, ,7666176.000000000000000,667717.500000000000000,45.4791539165059,-122.589641597451
91,Residential Addresses,MAF Fixes, , ,NE,310, , ,55th,Ave,Portland,OR,97213.000000000000000, ,7662119.000000000000000,684593.500000000000000,45.5251349734468,-122.607169107842
92,Residential Addresses,MAF Fixes, , ,SE,6834, , ,Powell,Blvd,Portland,OR,97206.000000000000000, ,7665575.000000000000000,674500.800000000050000,45.4977095863324,-122.592668870653
93,Residential Addresses,MAF Fixes, , ,SE,2522, , ,Clinton,St,Portland,OR,97202.000000000000000, ,7653526.250000000000000,676832.000000000000000,45.5032356320343,-122.63988303495
94,Residential Addresses,MAF Fixes, , ,SE,3689, , ,Francis,St,Portland,OR,97202.000000000000000, ,7657444.000000000000000,673743.060000000060000,45.495050103159,-122.624290941158
95,Residential Addresses,MAF Fixes, , ,SE,5661, , ,Harold,St,Portland,OR,97206.000000000000000, ,7662286.250000000000000,669310.000000000000000,45.4832432867794,-122.60496318447
96,Residential Addresses,MAF Fixes, , ,N,4015, , ,Albina,Ave,Portland,OR,97227.000000000000000, ,7645068.000000000000000,694975.250000000000000,45.5523594741771,-122.674765943636
97,Residential Addresses,MAF Fixes, , ,SE,14359, , ,Powell,Blvd,Portland,OR,97236.000000000000000, ,7685448.000000000000000,674718.750000000000000,45.4996927031732,-122.515209897899
98,Residential Addresses,MAF Fixes, , ,NE,1606, , ,90th,Ave,Portland,OR,97220.000000000000000, ,7671397.500000000000000,687839.300000000050000,45.5346921551373,-122.571302238224
99,Residential Addresses,MAF Fixes, , ,N,3625, , ,Farragut,St,Portland,OR,97217.000000000000000, ,7637823.500000000000000,705076.449999999950000,45.5795148725291,-122.704111664394
100,Residential Addresses,MAF Fixes, , ,SE,6236, , ,134th,Ave,Portland,OR,97236.000000000000000, ,7682455.000000000000000,666733.250000000000000,45.4775924263915,-122.52609830436
101,Residential Addresses,MAF Fixes, , ,SE,3334, , ,7th,Ave,Portland,OR,97202.000000000000000, ,7648724.500000000000000,675475.699999999950000,45.499166740872,-122.658463578364
102,Residential Addresses,MAF Fixes, , ,NW,18101, , ,Evergreen,Pkwy,Beaverton,OR,97006.000000000000000, ,7596326.122999999700000,691514.287200000020000,45.539115927088,-122.864564544922
103,Residential Addresses,MAF Fixes, , ,SE,13843, , ,McLoughlin,Blvd,Milwaukie,OR,97222.000000000000000, ,7654246.000000000000000,647531.300000000050000,45.4229523568877,-122.634058339015
104,Residential Addresses,MAF Fixes, , ,SE,4012, , ,17th,Ave,Portland,OR,97202.000000000000000, ,7651477.000000000000000,673416.800000000050000,45.4937229676859,-122.647518986304
105,Residential Addresses,MAF Fixes, , ,SE,4400, , ,17th,Ave,Portland,OR,97202.000000000000000, ,7651376.000000000000000,672510.250000000000000,45.4912300905122,-122.647818743354
106,Residential Addresses,MAF Fixes, , ,NE,13007, , ,Glisan,St,Portland,OR,97230.000000000000000, ,7682100.500000000000000,684649.099999999980000,45.5266901813199,-122.529234084195
107,Residential Addresses,MAF Fixes, , ,SE,3287, , ,Risley,Ave,Oak Grove,OR,97267.000000000000000, ,7655387.000000000000000,643045.599999999980000,45.4107360343321,-122.629155474512
108,Residential Addresses,MAF Fixes, , ,SW,1600, , ,4th,Ave,Portland,OR,97201.000000000000000, ,7643435.000000000000000,680311.000000000000000,45.5120342392364,-122.679594231187
109,Residential Addresses,MAF Fixes, , ,SW,308, , ,1st,Ave,Portland,OR,97204.000000000000000, ,7645464.510999999900000,683205.475100000040000,45.5201198673581,-122.671983564149
110,Residential Addresses,MAF Fixes, , ,NE,7640, , ,Airport,Way,Portland,OR,97238.000000000000000, ,7668693.519000000300000,705897.000000000000000,45.5840109734835,-122.583668359814
111,Residential Addresses,MAF Fixes, , ,SW,2211, , ,1st,Ave,Portland,OR,97201.000000000000000, ,7643482.000000000000000,678683.000000000000000,45.5075742501867,-122.679239669001
112,Residential Addresses,MAF Fixes, , ,SW,2221, , ,1st,Ave,Portland,OR,97201.000000000000000, ,7643505.000000000000000,678402.000000000000000,45.506805536895,-122.679120426173
113,Residential Addresses,MAF Fixes, , ,SW,521, , ,11th,Ave,Portland,OR,97205.000000000000000, ,7642658.000000000000000,683680.750000000000000,45.5212154847451,-122.682979315533
114,Residential Addresses,MAF Fixes, , ,N,1450, , ,Prescott,St,Portland,OR,97217.000000000000000, ,7643308.529000000100000,696037.061800000020000,45.555140503331,-122.681743866958
115,Residential Addresses,MAF Fixes, , ,SW,6932, , ,Macadam,Ave,Portland,OR,97219.000000000000000, ,7645181.461000000100000,666420.429099999950000,45.4740793842441,-122.671327676143
116,Residential Addresses,MAF Fixes, , ,SE,1743, , ,Mulberry,Ave,Portland,OR,97214.000000000000000, ,7650136.500000000000000,679463.750000000000000,45.5102041563293,-122.653373137773
117,Residential Addresses,MAF Fixes, , ,NE,10010, , ,Halsey,St,Portland,OR,97220.000000000000000, ,7674184.000000000000000,686783.939999999940000,45.5319939960213,-122.560326386067
118,Residential Addresses,MAF Fixes, , ,SE,3400, , ,43rd,Ave,Portland,OR,97206.000000000000000, ,7659173.462000000300000,674864.363900000000000,45.4982489498766,-122.617663315918
119,Residential Addresses,MAF Fixes, , ,SE,10201, , ,Main,St,Portland,OR,97216.000000000000000, ,7674738.262000000100000,680513.481000000030000,45.5148404917721,-122.557541065291
120,Residential Addresses,MAF Fixes, , ,SE,3172, , ,136th,Ave,Portland,OR,97236.000000000000000, ,7683571.000000000000000,674738.099999999980000,45.4996171277678,-122.522530008096
121,Residential Addresses,MAF Fixes, , ,SE,3130, , ,136th,Ave,Portland,OR,97236.000000000000000, ,7683571.000000000000000,674738.099999999980000,45.4996171277678,-122.522530008096
122,Residential Addresses,MAF Fixes, , ,SE,11935, , ,Liebe,St,Portland,OR,97266.000000000000000, ,7678886.500000000000000,670233.560000000060000,45.4869434183516,-122.540350611766
123,Residential Addresses,MAF Fixes, , ,SW,1100, , ,6th,Ave,Portland,OR,97204.000000000000000, ,7643445.500000000000000,681726.800000000050000,45.5159166913239,-122.679702275485
124,Residential Addresses,MAF Fixes, , ,SW,319, , ,Washington,St,Portland,OR,97204.000000000000000, ,7644681.120000000100000,683138.940900000050000,45.5198796553553,-122.675031882487
125,Residential Addresses,MAF Fixes, , ,SE,720, , ,Grand,Ave,Portland,OR,97214.000000000000000, ,7648368.500000000000000,682187.699999999950000,45.5175429758602,-122.660551473769
126,Residential Addresses,MAF Fixes, , ,SE,9900, , ,Washington,St,Portland,OR,97216.000000000000000, ,7674078.500000000000000,680970.300000000050000,45.5160468852631,-122.560159501084
127,Residential Addresses,MAF Fixes, , ,SW,12140, , ,Scholls Ferry,Rd,Tigard,OR,97223.000000000000000, ,7611593.000000000000000,656183.900000000020000,45.4434646082563,-122.801078004108
128,Residential Addresses,MAF Fixes, , ,SW,30, , ,2nd,Ave,Portland,OR,97204.000000000000000, ,7645461.000000000000000,684153.060000000060000,45.5227175873491,-122.672096641322
129,Residential Addresses,MAF Fixes, , ,SW,8205, , ,24th,Ave,Portland,OR,97219.000000000000000, ,7637138.500000000000000,663441.300000000050000,45.4653144431372,-122.702353811979
130,Residential Addresses,MAF Fixes, , ,E,524, , ,Burnside,St,Portland,OR,97214.000000000000000, ,7648522.000000000000000,684075.599999999980000,45.5227302802493,-122.660149739678
131,Residential Addresses,MAF Fixes, , ,SE,537, , ,Ash,St,Portland,OR,97214.000000000000000, ,7648506.000000000000000,683649.000000000000000,45.5215595000799,-122.660167645783
132,Residential Addresses,MAF Fixes, , ,NE,3825, , ,138th,Ave,Portland,OR,97230.000000000000000, ,7684427.140999999800000,693534.939999999940000,45.5512133160981,-122.521025698368
133,Residential Addresses,MAF Fixes, , ,NE,3502, , ,Broadway,St,Portland,OR,97232.000000000000000, ,7656859.500000000000000,688301.060000000060000,45.5349220369624,-122.628064837798
134,Residential Addresses,MAF Fixes, , ,SW,815, , ,Park,Ave,Portland,OR,97205.000000000000000, ,7643059.500000000000000,682798.699999999950000,45.5188269283319,-122.681320492011
135,Residential Addresses,MAF Fixes, , ,SE,2735, , ,Park,Ave,Milwaukie,OR,97222.000000000000000, ,7654052.500000000000000,650296.699999999950000,45.4305204773702,-122.635096342286
136,Residential Addresses,MAF Fixes, , ,SW,720, , ,Washington,St,Portland,OR,97205.000000000000000, ,7643538.254999999900000,683436.425900000030000,45.520610800929,-122.679520455791
137,Residential Addresses,MAF Fixes, , ,NE,3716, , ,Martin Luther King Jr,Blvd,Portland,OR,97212.000000000000000, ,7648503.710000000000000,693941.079999999960000,45.5497769595869,-122.661250662073
138,Residential Addresses,MAF Fixes, , ,SW,6970, , ,Beaverton Hillsdale,Hwy,Portland,OR,97225.000000000000000, ,7625596.500000000000000,671194.400000000020000,45.4856990715682,-122.748165111062
139,Residential Addresses,MAF Fixes, , ,NE,5004, , ,6th,Ave,Portland,OR,97211.000000000000000, ,7649125.000000000000000,697395.862500000050000,45.5592943862637,-122.659186665093
140,Residential Addresses,MAF Fixes, , ,SE,309, , ,129th,Ave,Portland,OR,97233.000000000000000, ,7681484.500000000000000,682340.800000000050000,45.5203188125858,-122.531410490684
141,Residential Addresses,MAF Fixes, , ,NE,2242, , ,Davis,St,Portland,OR,97232.000000000000000, ,7653116.000000000000000,684459.250000000000000,45.5241175892219,-122.642271333609
142,Residential Addresses,MAF Fixes, , ,SE,2817, , ,Park,Ave,Oak Grove,OR,97222.000000000000000, ,7654414.500000000000000,650251.000000000000000,45.4304214051037,-122.633682008482
143,Residential Addresses,MAF Fixes, , ,NE,6700, , ,59th,Pl,Portland,OR,97218.000000000000000, ,7663730.000000000000000,701556.560000000060000,45.5717580956373,-122.602607692784
144,Residential Addresses,MAF Fixes, , ,SW,14105, , ,Canyon,Rd,Beaverton,OR,97005.000000000000000, ,7606651.000000000000000,673285.939999999940000,45.4899636813299,-122.822240412104
145,Residential Addresses,MAF Fixes, , ,SE,1300, , ,Stark,St,Portland,OR,97214.000000000000000, ,7650548.500000000000000,682715.900000000020000,45.5191507053943,-122.652104455336
146,Residential Addresses,MAF Fixes, , ,SE,501, , ,14th,Ave,Portland,OR,97214.000000000000000, ,7650612.000000000000000,682723.400000000020000,45.5191759066299,-122.651857580358
147,Residential Addresses,MAF Fixes, , ,N,3500, , ,Interstate,Ave,Portland,OR,97227.000000000000000, ,7643561.000000000000000,693193.250000000000000,45.547362450512,-122.680459002875
148,Residential Addresses,MAF Fixes, , ,NE,122, , ,Broadway,St,Portland,OR,97232.000000000000000, ,7647627.000000000000000,688567.000000000000000,45.5349786118799,-122.664109858974
149,Residential Addresses,MAF Fixes, , ,NE,128, , ,Broadway,St,Portland,OR,97232.000000000000000, ,7647663.250000000000000,688567.250000000000000,45.5349819600569,-122.663968468835
150,Residential Addresses,MAF Fixes, , ,NE,140, , ,Broadway,St,Portland,OR,97232.000000000000000, ,7647693.250000000000000,688564.500000000000000,45.5349766239624,-122.663851147266
151,Residential Addresses,MAF Fixes, , ,SE,2700, , ,138th,Ave,Portland,OR,97236.000000000000000, ,7683883.000000000000000,675932.500000000000000,45.5029133862917,-122.521430095528
152,Residential Addresses,MAF Fixes, , ,NE,1800, , ,Market,Dr,Fairview,OR,97024.000000000000000, ,7704773.000000000000000,686612.900000000020000,45.5336023520347,-122.440976287987
153,Residential Addresses,MAF Fixes, , ,SE,2935, , ,Washington,St,Portland,OR,97214.000000000000000, ,7654906.500000000000000,682474.800000000050000,45.5188067747754,-122.635083014453
154,Residential Addresses,MAF Fixes, , ,SE,2941, , ,Washington,St,Portland,OR,97214.000000000000000, ,7654906.500000000000000,682474.800000000050000,45.5188067747754,-122.635083014453
155,Residential Addresses,MAF Fixes, , ,SE,2923, , ,Washington,St,Portland,OR,97214.000000000000000, ,7654820.750000000000000,682475.800000000050000,45.5188033014447,-122.635417548077
156,Residential Addresses,MAF Fixes, , ,SE,2953, , ,Washington,St,Portland,OR,97214.000000000000000, ,7654820.750000000000000,682475.800000000050000,45.5188033014447,-122.635417548077
157,Residential Addresses,MAF Fixes, , ,SE,2925, , ,Washington,St,Portland,OR,97214.000000000000000, ,7654817.250000000000000,682496.300000000050000,45.5188592530013,-122.635433312035
158,Residential Addresses,MAF Fixes, , ,SE,2951, , ,Washington,St,Portland,OR,97214.000000000000000, ,7654817.250000000000000,682496.300000000050000,45.5188592530013,-122.635433312035
159,Residential Addresses,MAF Fixes, , ,SE,2949, , ,Washington,St,Portland,OR,97214.000000000000000, ,7654836.250000000000000,682501.300000000050000,45.5188743387896,-122.63535972627
160,Residential Addresses,MAF Fixes, , ,SE,2927, , ,Washington,St,Portland,OR,97214.000000000000000, ,7654836.250000000000000,682501.300000000050000,45.5188743387896,-122.63535972627
161,Residential Addresses,MAF Fixes, , ,SE,2947, , ,Washington,St,Portland,OR,97214.000000000000000, ,7654869.250000000000000,682501.300000000050000,45.5188767306378,-122.635231023987
162,Residential Addresses,MAF Fixes, , ,SE,2929, , ,Washington,St,Portland,OR,97214.000000000000000, ,7654869.250000000000000,682501.300000000050000,45.5188767306378,-122.635231023987
163,Residential Addresses,MAF Fixes, , ,SE,2945, , ,Washington,St,Portland,OR,97214.000000000000000, ,7654897.250000000000000,682503.300000000050000,45.5188842434116,-122.635122028229
164,Residential Addresses,MAF Fixes, , ,SE,2931, , ,Washington,St,Portland,OR,97214.000000000000000, ,7654897.250000000000000,682503.300000000050000,45.5188842434116,-122.635122028229
165,Residential Addresses,MAF Fixes, , ,SE,2943, , ,Washington,St,Portland,OR,97214.000000000000000, ,7654919.750000000000000,682503.800000000050000,45.5188872449114,-122.635034328196
166,Residential Addresses,MAF Fixes, , ,SE,2933, , ,Washington,St,Portland,OR,97214.000000000000000, ,7654919.750000000000000,682503.800000000050000,45.5188872449114,-122.635034328196
167,Residential Addresses,MAF Fixes, , ,SE,2939, , ,Washington,St,Portland,OR,97214.000000000000000, ,7654907.250000000000000,682440.300000000050000,45.5187122397894,-122.635076532739
168,Residential Addresses,MAF Fixes, , ,SE,2937, , ,Washington,St,Portland,OR,97214.000000000000000, ,7654907.250000000000000,682440.300000000050000,45.5187122397894,-122.635076532739
169,Residential Addresses,MAF Fixes, , ,SE,2921, , ,Washington,St,Portland,OR,97214.000000000000000, ,7654820.500000000000000,682459.250000000000000,45.5187579078626,-122.635416816652
170,Residential Addresses,MAF Fixes, , ,SE,2955, , ,Washington,St,Portland,OR,97214.000000000000000, ,7654820.500000000000000,682459.250000000000000,45.5187579078626,-122.635416816652
171,Residential Addresses,MAF Fixes, , ,NW,1616, , ,13th,Ave,Portland,OR,97209.000000000000000, ,7642501.500000000000000,688592.939999999940000,45.5346714839208,-122.684107746514
172,Residential Addresses,MAF Fixes, , ,NW,1650, , ,13th,Ave,Portland,OR,97209.000000000000000, ,7642501.500000000000000,688592.939999999940000,45.5346714839208,-122.684107746514
173,Residential Addresses,MAF Fixes, , ,N,300, , ,Graham,St,Portland,OR,97227.000000000000000, ,7646207.000000000000000,691412.699999999950000,45.5426761471123,-122.669947707993
174,Residential Addresses,MAF Fixes, , ,N,5001, , ,Columbia,Blvd,Portland,OR,97203.000000000000000, ,7634147.947999999900000,710930.179899999990000,45.5952875122221,-122.719089374503
175,Residential Addresses,MAF Fixes, , ,SW,917, , ,Gibbs,St,Portland,OR,97239.000000000000000, ,7640662.750000000000000,675749.689999999940000,45.4993229765251,-122.689922447772
176,Residential Addresses,MAF Fixes, , ,SW,915, , ,Gibbs,St,Portland,OR,97239.000000000000000, ,7640662.750000000000000,675749.689999999940000,45.4993229765251,-122.689922447772
177,Residential Addresses,MAF Fixes, , ,SE,3119, , ,8th,Ave,Portland,OR,97202.000000000000000, ,7648824.000000000000000,675931.939999999940000,45.5004249097717,-122.658123184737
178,Residential Addresses,MAF Fixes, , ,N,5325, , ,Williams,Ave,Portland,OR,97217.000000000000000, ,7647033.000000000000000,698523.800000000050000,45.5622331918272,-122.667469462847
179,Residential Addresses,MAF Fixes, , ,NE,5004, , ,6th,Ave,Portland,OR,97211.000000000000000, ,7649116.000000000000000,697398.400000000020000,45.5593006836247,-122.659222055179
180,Residential Addresses,MAF Fixes, , ,SW,7451, , ,Garden Home,Rd,Portland,OR,97223.000000000000000, ,7624233.500000000000000,664061.900000000020000,45.4660401628103,-122.752702243339
181,Residential Addresses,MAF Fixes, , ,SE,1507, , ,39th,Ave,Portland,OR,97214.000000000000000, ,7657941.000000000000000,679869.500000000000000,45.511883047158,-122.622981157457
182,Residential Addresses,MAF Fixes, , ,SW,934, , ,Salmon,St,Portland,OR,97205.000000000000000, ,7642617.000000000000000,682452.560000000060000,45.5178451476935,-122.683009758789
183,Residential Addresses,MAF Fixes, , ,NE,4259, , ,Broadway,St,Portland,OR,97213.000000000000000, ,7659150.000000000000000,688373.599999999980000,45.535286027371,-122.619136582164
184,Residential Addresses,MAF Fixes, , ,SW,8205, , ,24th,Ave,Portland,OR,97219.000000000000000, ,7637150.500000000000000,0.000000000000000,1.#QNAN,1.#QNAN
185,Residential Addresses,MAF Fixes, , ,W,920, , ,Burnside,St,Portland,OR,97209.000000000000000, ,7643297.500000000000000,684274.500000000000000,45.5228907138779,-122.680547672523
186,Residential Addresses,MAF Fixes, , ,NW,3610, , ,St Helens,Rd,Portland,OR,97210.000000000000000, ,7632253.500000000000000,694003.439999999940000,45.548738320466,-122.724666922344
187,Residential Addresses,MAF Fixes, , ,SW,506, , ,6th,Ave,Portland,OR,97204.000000000000000, ,7644010.000000000000000,683275.099999999980000,45.5202033823646,-122.677663623627
188,Residential Addresses,MAF Fixes, , ,SW,7642, , ,Capitol,Hwy,Portland,OR,97219.000000000000000, ,7635559.000000000000000,664823.250000000000000,45.4689850805271,-122.708655254649
189,Residential Addresses,MAF Fixes, , ,NE,1407, , ,Halsey,St,Portland,OR,97232.000000000000000, ,7650280.000000000000000,688057.599999999980000,45.5337764120415,-122.653707115347
190,Residential Addresses,MAF Fixes, , ,NE,1405, , ,Halsey,St,Portland,OR,97232.000000000000000, ,7650163.500000000000000,688061.300000000050000,45.5337780386957,-122.654161974778
191,Residential Addresses,MAF Fixes, , ,NE,1839, , ,Couch,St,Portland,OR,97232.000000000000000, ,7652010.000000000000000,684339.300000000050000,45.5237082157971,-122.646572758761
192,Multifamily Residential,MAF Multifamily, , ,NE,5272,APARTMENT,108,6TH,AVE,PORTLAND,OR,97211.000000000000000, ,7649106.232939999600000,698192.659119999970000,45.5614775603717,-122.659343045284
193,Multifamily Residential,MAF Multifamily, , ,SW,12655,#,530,CENTER,ST,BEAVERTON,OR,97005.000000000000000, ,7610693.962930000400000,674611.312339999950000,45.4939149010406,-122.806629054045
194,Multifamily Residential,MAF Multifamily, , ,NW,1230,APARTMENT,610,12TH,AVE,PORTLAND,OR,97209.000000000000000, ,7642707.403869999600000,687569.417980000030000,45.5318805916021,-122.683196572129
195,Multifamily Residential,MAF Multifamily, , ,SW,523,APARTMENT,207,13TH,AVE,PORTLAND,OR,97205.000000000000000, ,7642162.623030000400000,683894.145009999980000,45.5217638211383,-122.684933881665
196,Multifamily Residential,MAF Multifamily, , ,SW,1035,APARTMENT,5,BERTHA,BLVD,PORTLAND,OR,97219.000000000000000, ,7640402.474080000100000,665633.547900000010000,45.4715682477319,-122.689867893503
197,Multifamily Residential,MAF Multifamily, , ,N,8832,APARTMENT,911,SYRACUSE,ST,PORTLAND,OR,97203.000000000000000, ,7624126.580050000000000,709461.913060000050000,45.5905007042143,-122.758064142773
198,Multifamily Residential,MAF Multifamily, , ,SW,10706,APARTMENT,22,CAPITOL,HWY,PORTLAND,OR,97219.000000000000000, ,7631392.216860000000000,657232.105970000030000,45.4478590317308,-122.724076769781
199,Multifamily Residential,MAF Multifamily, , ,NE,436,APARTMENT,7,63RD,AVE,PORTLAND,OR,97213.000000000000000, ,7664440.548879999700000,684784.189959999990000,45.5258234907121,-122.598133120042
200,Multifamily Residential,MAF Multifamily, , ,NW,1030,APARTMENT,506,12TH,AVE,PORTLAND,OR,97209.000000000000000, ,7642753.449149999800000,687038.857940000020000,45.5304293847738,-122.682961018405
201,Multifamily Residential,MAF Multifamily, , ,SW,14570,#,249,HART,RD,BEAVERTON,OR,97007.000000000000000, ,7605270.604000000300000,664184.513120000020000,45.4649025349094,-122.826599053601
202,Multifamily Residential,MAF Multifamily, , ,SE,6404,APARTMENT,217,23RD,AVE,PORTLAND,OR,97202.000000000000000, ,7652737.916989999800000,667245.097109999970000,45.4768935796795,-122.641965488103
203,Multifamily Residential,MAF Multifamily, , ,S,1655,UNIT,531,ELM,ST,CANBY,OR,97013.000000000000000, ,7635081.187660000300000,584965.586290000010000,45.2499982039402,-122.702033736194
204,Multifamily Residential,MAF Multifamily, , ,SW,14725,#,511,OSPREY,DR,BEAVERTON,OR,97007.000000000000000, ,7604609.940290000300000,656432.413709999990000,45.4435972791312,-122.828302413535
205,Multifamily Residential,MAF Multifamily, , ,NW,824,APARTMENT,603,20TH,AVE,PORTLAND,OR,97209.000000000000000, ,7640351.133860000400000,686578.233920000030000,45.5289881228168,-122.692283175035
206,Multifamily Residential,MAF Multifamily, , ,NW,333,UNIT,609,9TH,AVE,PORTLAND,OR,97209.000000000000000, ,7643271.688980000100000,685218.353020000040000,45.5254765411179,-122.680747734407
207,Multifamily Residential,MAF Multifamily, , ,SW,16402,#,202,ESTUARY,DR,BEAVERTON,OR,97006.000000000000000, ,7600966.049870000200000,682930.866470000010000,45.515955330025,-122.84549095374
208,Multifamily Residential,MAF Multifamily, , ,NW,2328,APARTMENT,2,GLISAN,ST,PORTLAND,OR,97210.000000000000000, ,7638557.763120000300000,685536.094159999980000,45.5259972705857,-122.699167862101
209,Multifamily Residential,MAF Multifamily, , ,SW,3350,#,12,126TH,AVE,BEAVERTON,OR,97005.000000000000000, ,7610812.073490000300000,675320.480970000030000,45.4958683891238,-122.806247578386
210,Multifamily Residential,MAF Multifamily, , ,SW,14742,#,818,SCHOLLS FERRY,RD,BEAVERTON,OR,97007.000000000000000, ,7605017.541340000000000,652983.536420000020000,45.4341740403615,-122.826328070237
211,Multifamily Residential,MAF Multifamily, , ,SW,8900,APT,#1322,SWEEK,DR,TUALATIN,OR,97062.000000000000000, ,7618756.576449999600000,634383.250450000050000,45.3842505696903,-122.770790759627
212,Multifamily Residential,MAF Multifamily, , ,NW,2575,APARTMENT,23,MARSHALL,ST,PORTLAND,OR,97210.000000000000000, ,7637281.157150000300000,687254.275920000040000,45.5306125193924,-122.704330121361
213,Multifamily Residential,MAF Multifamily, , ,SE,12025,UNIT,55,STEVENS,RD,HAPPY VALLEY,OR,97086.000000000000000, ,7671854.418639999800000,652124.346129999960000,45.4368008545865,-122.56595594513
214,Multifamily Residential,MAF Multifamily, , ,NW,800,#,103,118TH,AVE,BEAVERTON,OR,97229.000000000000000, ,7613681.951770000200000,686490.809709999940000,45.526716811393,-122.796298000401
215,Multifamily Residential,MAF Multifamily, , ,SE,334,APT,I,4TH,AVE,HILLSBORO,OR,97123.000000000000000, ,7565508.274930000300000,685292.269029999970000,45.519522749676,-122.984037823551
216,Multifamily Residential,MAF Multifamily, , ,SW,8300,#,36,GREENWAY, ,BEAVERTON,OR,97008.000000000000000, ,7612696.411750000000000,662144.910760000000000,45.4598935341412,-122.79744094045
217,Multifamily Residential,MAF Multifamily, , ,NW,3057,APT,1415,OVERLOOK,DR,HILLSBORO,OR,97124.000000000000000, ,7591168.245729999600000,693540.150589999980000,45.5442540289519,-122.884919420868
218,Multifamily Residential,MAF Multifamily, , ,SE,3130,APARTMENT,103,STARK,ST,PORTLAND,OR,97214.000000000000000, ,7655671.871059999800000,682459.454069999980000,45.5188201304977,-122.632096435013
219,Multifamily Residential,MAF Multifamily, , ,SW,2024,#,119,MERLO,CT,BEAVERTON,OR,97003.000000000000000, ,7600751.864170000000000,678898.140750000020000,45.5048824452707,-122.845869437184
220,Multifamily Residential,MAF Multifamily, , ,SE,2055,APT,222,44TH,AVE,HILLSBORO,OR,97123.000000000000000, ,7576644.080380000200000,679574.757869999970000,45.5047792896217,-122.939937977177
221,Multifamily Residential,MAF Multifamily, , ,SW,737,APARTMENT,408,17TH,AVE,PORTLAND,OR,97205.000000000000000, ,7640922.596130000400000,683856.805120000030000,45.5215693795584,-122.689766282821
222,Multifamily Residential,MAF Multifamily, , ,N,287,APT,15,10TH,AVE,CORNELIUS,OR,97113.000000000000000, ,7546035.777920000300000,687027.214739999970000,45.5226118566575,-123.060185639634
223,Multifamily Residential,MAF Multifamily, , ,SE,2511,SP,95,RIVER,RD,HILLSBORO,OR,97123.000000000000000, ,7572349.659450000200000,678774.045599999950000,45.5022273227225,-122.956585517453
224,Multifamily Residential,MAF Multifamily, , ,E,5316,APARTMENT,24,BURNSIDE,ST,PORTLAND,OR,97215.000000000000000, ,7661760.202100000300000,683593.108920000030000,45.5223664896092,-122.608466752568
225,Multifamily Residential,MAF Multifamily, , , ,1672,UNIT,E,WILLAMETTE FALLS,DR,WEST LINN,OR,97068.000000000000000, ,7647516.497379999600000,618903.746389999990000,45.3439709752925,-122.657282496355
226,Multifamily Residential,MAF Multifamily, , ,NW,2250,UNIT,202,KEARNEY,ST,PORTLAND,OR,97210.000000000000000, ,7638998.685039999900000,686535.523949999940000,45.52877026467,-122.697554116651
227,Multifamily Residential,MAF Multifamily, , ,NW,416,APARTMENT,115,13TH,AVE,PORTLAND,OR,97209.000000000000000, ,7642452.808070000300000,685479.907149999980000,45.5261329762363,-122.683969331037
228,Multifamily Residential,MAF Multifamily, , ,SE,3035,APARTMENT,1,ANKENY,ST,PORTLAND,OR,97214.000000000000000, ,7655175.562010000500000,683738.695870000050000,45.5222915176857,-122.634163896432
229,Multifamily Residential,MAF Multifamily, , ,E,10610,APARTMENT,202,BURNSIDE,ST,PORTLAND,OR,97216.000000000000000, ,7675675.931099999700000,683209.328080000010000,45.5222973724681,-122.554151624826
230,Multifamily Residential,MAF Multifamily, , ,NE,1322,STE,310,ORENCO STATION,PKWY,HILLSBORO,OR,97124.000000000000000, ,7582978.171260000200000,690158.961610000000000,45.5343172881817,-122.916477746288
231,Multifamily Residential,MAF Multifamily, , ,NW,550,APARTMENT,501,19TH,AVE,PORTLAND,OR,97209.000000000000000, ,7640901.413060000200000,685741.888120000020000,45.5267360729466,-122.690048249247
232,Multifamily Residential,MAF Multifamily, , ,SW,1615,APARTMENT,415,MORRISON,ST,PORTLAND,OR,97205.000000000000000, ,7641269.402889999600000,683974.176839999970000,45.5219169437308,-122.688426075042
233,Multifamily Residential,MAF Multifamily, , ,SW,2722,APARTMENT,2,SPRING GARDEN,ST,PORTLAND,OR,97219.000000000000000, ,7636420.121059999800000,662308.539039999950000,45.4621550172071,-122.705032344836
234,Multifamily Residential,MAF Multifamily, , ,SW,3550,UNIT,325,BOND,AVE,PORTLAND,OR,97239.000000000000000, ,7645742.664040000200000,674929.479000000050000,45.4974501064697,-122.67003156486
235,Multifamily Residential,MAF Multifamily, , ,NW,1260,UNIT,107,NAITO,PKWY,PORTLAND,OR,97209.000000000000000, ,7643914.764109999900000,687824.515090000000000,45.532669359315,-122.678513611933
236,Multifamily Residential,MAF Multifamily, , ,SW,2336,UNIT,603,OSAGE,ST,PORTLAND,OR,97205.000000000000000, ,7638348.179130000100000,684422.899929999960000,45.5229296264828,-122.699867081358
237,Multifamily Residential,MAF Multifamily, , ,NW,2327,APARTMENT,4,NORTHRUP,ST,PORTLAND,OR,97210.000000000000000, ,7638660.109910000100000,687511.961939999950000,45.5314220560153,-122.698978478198
238,Multifamily Residential,MAF Multifamily, , ,NW,19295,APT,237,CORNELL,RD,HILLSBORO,OR,97124.000000000000000, ,7593646.076440000000000,690070.665679999980000,45.534942693769,-122.874854178885
239,Multifamily Residential,MAF Multifamily, , ,NW,1400,APARTMENT,113,IRVING,ST,PORTLAND,OR,97209.000000000000000, ,7641972.428150000100000,686014.636150000030000,45.5275633986894,-122.685899499334
240,Multifamily Residential,MAF Multifamily, , ,NW,27,APARTMENT,45,TRINITY,PL,PORTLAND,OR,97209.000000000000000, ,7640502.727029999700000,684581.259839999960000,45.5235243723437,-122.691480510114
241,Multifamily Residential,MAF Multifamily, , ,SW,917,SUITE,218,OAK,ST,PORTLAND,OR,97205.000000000000000, ,7643310.362859999800000,684248.606950000040000,45.5228206755772,-122.680494777356
242,Multifamily Residential,MAF Multifamily, , ,SE,911,APARTMENT,110,60TH,AVE,PORTLAND,OR,97215.000000000000000, ,7663298.456039999600000,681398.288060000050000,45.516458778392,-122.602244219362
243,Multifamily Residential,MAF Multifamily, , ,SE,1404,APARTMENT,B,PINE,ST,PORTLAND,OR,97214.000000000000000, ,7650740.074149999800000,683237.418960000040000,45.5205945484505,-122.6514114791
244,Multifamily Residential,MAF Multifamily, , ,SW,1104,UNIT,102,COLUMBIA,ST,PORTLAND,OR,97201.000000000000000, ,7641822.455050000000000,681648.999019999990000,45.5155831272143,-122.686023615484
245,Multifamily Residential,MAF Multifamily, , , ,668,UNIT,76,MCVEY,AVE,LAKE OSWEGO,OR,97034.000000000000000, ,7646094.197510000300000,643650.634839999960000,45.4117175697619,-122.665391954774
246,Multifamily Residential,MAF Multifamily, , , ,4805,APT,P,PARKVIEW,DR,LAKE OSWEGO,OR,97035.000000000000000, ,7630604.436019999900000,646966.367779999970000,45.4196539538499,-122.726043224211
247,Multifamily Residential,MAF Multifamily, , ,SW,17,APARTMENT,210,2ND,AVE,PORTLAND,OR,97204.000000000000000, ,7645340.625000000000000,684180.067909999980000,45.5227827583834,-122.672568971505
248,Multifamily Residential,MAF Multifamily, , ,SW,7910,UNIT,306,31ST,AVE,PORTLAND,OR,97219.000000000000000, ,7635546.559059999900000,664164.204069999980000,45.4671772474905,-122.708633510658
249,Multifamily Residential,MAF Multifamily, , ,NE,14212,APARTMENT,1,SANDY,BLVD,PORTLAND,OR,97230.000000000000000, ,7685270.816929999700000,694161.175850000000000,45.5529881575416,-122.51779435522
250,Multifamily Residential,MAF Multifamily, , ,SW,1221,UNIT,1305,10TH,AVE,PORTLAND,OR,97205.000000000000000, ,7642184.000000000000000,681936.937009999990000,45.5163993788759,-122.684644041205
251,Multifamily Residential,MAF Multifamily, , , ,19759,UNIT,C,RIVER,RD,GLADSTONE,OR,97027.000000000000000, ,7661798.080380000200000,630170.213579999980000,45.3758944439664,-122.602894210037
252,Multifamily Residential,MAF Multifamily, , ,SW,2207,APT,91,STURGES,LN,TROUTDALE,OR,97060.000000000000000, ,7712521.339900000000000,685911.212930000040000,45.5321849242002,-122.410682529112
253,Multifamily Residential,MAF Multifamily, , ,SW,3280,#,1608,170TH,AVE,BEAVERTON,OR,97003.000000000000000, ,7600228.059059999900000,675547.744090000050000,45.4956554922062,-122.847531995732
254,Multifamily Residential,MAF Multifamily, , ,SW,620,#,307,150TH,AVE,BEAVERTON,OR,97006.000000000000000, ,7604698.873359999600000,682590.206690000020000,45.5153176583998,-122.830896069215
255,Multifamily Residential,MAF Multifamily, , ,NW,18855,RM,617,TANASBOURNE,DR,HILLSBORO,OR,97124.000000000000000, ,7594878.645670000500000,692150.830049999990000,45.540744684006,-122.870284236705
256,Multifamily Residential,MAF Multifamily, , ,SE,5200,APARTMENT,3,132ND,AVE,PORTLAND,OR,97236.000000000000000, ,7682203.660100000000000,669445.923889999980000,45.485012861518,-122.527343222875
257,Multifamily Residential,MAF Multifamily, , ,SW,1819,APARTMENT,6,18TH,AVE,PORTLAND,OR,97201.000000000000000, ,7639653.951120000300000,681397.102029999950000,45.514731290984,-122.694453585679
258,Multifamily Residential,MAF Multifamily, , ,SW,3515,APARTMENT,X1,BARBUR,BLVD,PORTLAND,OR,97239.000000000000000, ,7643286.923879999700000,674649.666010000040000,45.4965016566924,-122.679575933221
259,Multifamily Residential,MAF Multifamily, , ,NW,772,#,104,118TH,AVE,BEAVERTON,OR,97229.000000000000000, ,7613780.449480000000000,686399.811349999970000,45.5264750101805,-122.795903731373
260,Multifamily Residential,MAF Multifamily, , ,NW,1030,APARTMENT,208,12TH,AVE,PORTLAND,OR,97209.000000000000000, ,7642753.449149999800000,687038.857940000020000,45.5304293847738,-122.682961018405
261,Multifamily Residential,MAF Multifamily, , ,SE,1118,APARTMENT,2,RHONE,ST,PORTLAND,OR,97202.000000000000000, ,7649784.869090000200000,674291.988849999970000,45.4959989531892,-122.654206444394
262,Multifamily Residential,MAF Multifamily, , ,SW,13820,#,308,ELECTRIC,ST,BEAVERTON,OR,97005.000000000000000, ,7607236.614830000300000,673938.449150000000000,45.4917987179901,-122.820030836641
263,Multifamily Residential,MAF Multifamily, , ,SW,7845,#,7,HALL,BLVD,BEAVERTON,OR,97008.000000000000000, ,7611476.395010000100000,663257.872050000010000,45.4628495968241,-122.802317478029
264,Multifamily Residential,MAF Multifamily, , ,SW,15270,#,103,SPARROW,LOOP,BEAVERTON,OR,97007.000000000000000, ,7603143.126640000400000,652260.697840000040000,45.4320440635085,-122.833545713245
265,Multifamily Residential,MAF Multifamily, , ,NE,1053,APT,D304,ORENCO STATION,PKWY,HILLSBORO,OR,97124.000000000000000, ,7582804.684709999700000,689149.477360000020000,45.5315356167558,-122.917036632009
266,Multifamily Residential,MAF Multifamily, , ,NE,1645,APARTMENT,B4,162ND,AVE,PORTLAND,OR,97230.000000000000000, ,7690365.982939999600000,687398.961939999950000,45.5347946463972,-122.497257512293
267,Multifamily Residential,MAF Multifamily, , ,SW,204,APARTMENT,505,8TH,AVE,PORTLAND,OR,97205.000000000000000, ,7643928.749020000000000,684201.601050000060000,45.5227375444921,-122.678077951258
268,Multifamily Residential,MAF Multifamily, , , ,5000,UNIT,5,BROADWAY,ST,WEST LINN,OR,97068.000000000000000, ,7659624.223749999900000,624823.616799999960000,45.36107939708,-122.610807620573
269,Multifamily Residential,MAF Multifamily, , ,SW,1125,APARTMENT,102,12TH,AVE,PORTLAND,OR,97205.000000000000000, ,7641827.869090000200000,682387.085960000050000,45.5176071237746,-122.686080405442
270,Multifamily Residential,MAF Multifamily, , ,NW,2211,SUITE,210,FRONT,AVE,PORTLAND,OR,97209.000000000000000, ,7640819.292980000400000,690153.276900000060000,45.5388244899383,-122.690835278539
271,Multifamily Residential,MAF Multifamily, , ,NW,520,#,308,LOST SPRINGS,TER,BEAVERTON,OR,97229.000000000000000, ,7612861.642719999900000,685040.620080000020000,45.522677043648,-122.799336502024
272,Multifamily Residential,MAF Multifamily, , ,NE,1005,APT,137,17TH,AVE,HILLSBORO,OR,97124.000000000000000, ,7570327.503610000000000,689734.096780000020000,45.5321043481925,-122.965773300981
273,Multifamily Residential,MAF Multifamily, , ,SE,3709,APARTMENT,200,HAWTHORNE,BLVD,PORTLAND,OR,97214.000000000000000, ,7657279.736879999700000,680023.521979999960000,45.5122576532076,-122.62557562592
274,Multifamily Residential,MAF Multifamily, , ,NW,1037,APARTMENT,108,20TH,AVE,PORTLAND,OR,97209.000000000000000, ,7640222.583990000200000,687118.360890000010000,45.5304593997833,-122.692841807176
275,Multifamily Residential,MAF Multifamily, , ,SE,9105,UNIT,15,32ND,AVE,MILWAUKIE,OR,97222.000000000000000, ,7655565.084970000200000,659696.479000000050000,45.4564020839762,-122.630171622697
276,Multifamily Residential,MAF Multifamily, , ,N,3951,SUITE,406,WILLIAMS,AVE,PORTLAND,OR,97227.000000000000000, ,7647067.436019999900000,694580.412069999960000,45.5514242924946,-122.666922150153
277,Multifamily Residential,MAF Multifamily, , ,SW,6685,APT,#45,SAGERT,ST,TUALATIN,OR,97062.000000000000000, ,7625063.282370000100000,631840.733969999940000,45.3777632121881,-122.745978172833
278,Multifamily Residential,MAF Multifamily, , ,SE,3808,APARTMENT,4,CESAR E CHAVEZ,BLVD,PORTLAND,OR,97202.000000000000000, ,7658042.631889999800000,673826.455049999990000,45.4953218935306,-122.621965745186
279,Multifamily Residential,MAF Multifamily, , ,NW,2020,APARTMENT,205,NORTHRUP,ST,PORTLAND,OR,97209.000000000000000, ,7640179.413060000200000,687315.810040000010000,45.5309975243673,-122.693031119975
280,Multifamily Residential,MAF Multifamily, , , ,543,UNIT,C-1,3RD,ST,LAKE OSWEGO,OR,97034.000000000000000, ,7646003.931099999700000,647316.244090000050000,45.4217611799955,-122.666126000291
281,Multifamily Residential,MAF Multifamily, , ,SW,1125,APARTMENT,303,12TH,AVE,PORTLAND,OR,97205.000000000000000, ,7641827.869090000200000,682387.085960000050000,45.5176071237746,-122.686080405442
282,Multifamily Residential,MAF Multifamily, , ,W,2139,APARTMENT,302,BURNSIDE,ST,PORTLAND,OR,97210.000000000000000, ,7639552.219159999900000,684591.287069999960000,45.5234810985536,-122.695188849275
283,Multifamily Residential,MAF Multifamily, , ,NE,11221,APARTMENT,14,GLISAN,ST,PORTLAND,OR,97220.000000000000000, ,7677387.075129999800000,684833.783139999960000,45.52687040914,-122.547638076012
284,Multifamily Residential,MAF Multifamily, , ,NW,926,SUITE,150,13TH,AVE,PORTLAND,OR,97209.000000000000000, ,7642503.352029999700000,686782.994090000050000,45.529709355595,-122.68390961112
285,Multifamily Residential,MAF Multifamily, , ,SW,8330,#,63,GREENWAY, ,BEAVERTON,OR,97008.000000000000000, ,7612609.541989999800000,662072.352360000020000,45.4596878321645,-122.797771326695
286,Multifamily Residential,MAF Multifamily, , ,NE,3141,APARTMENT,324,148TH,AVE,PORTLAND,OR,97230.000000000000000, ,7686986.408140000000000,691393.063979999980000,45.5455158465014,-122.510830216489
287,Multifamily Residential,MAF Multifamily, , ,SE,5200,APARTMENT,18,132ND,AVE,PORTLAND,OR,97236.000000000000000, ,7682203.660100000000000,669445.923889999980000,45.485012861518,-122.527343222875
288,Multifamily Residential,MAF Multifamily, , ,SW,707,SUITE,500,WASHINGTON,ST,PORTLAND,OR,97205.000000000000000, ,7643623.887140000200000,683637.990160000040000,45.5211697599713,-122.679207688853
289,Multifamily Residential,MAF Multifamily, , ,SW,2409,APARTMENT,8,NEBRASKA,ST,PORTLAND,OR,97239.000000000000000, ,7637329.820869999900000,668047.716860000040000,45.4779581321408,-122.702097692823
290,Multifamily Residential,MAF Multifamily, , ,NE,391,APT,D,AUTUMN ROSE,WAY,HILLSBORO,OR,97124.000000000000000, ,7565071.168309999600000,692300.281169999970000,45.5386974448532,-122.986583764108
291,Multifamily Residential,MAF Multifamily, , ,NW,820,UNIT,38,WADE,ST,ESTACADA,OR,97023.000000000000000, ,7729376.999669999800000,599627.415350000020000,45.2966657450629,-122.337266458606
292,Residential Addresses,MAF - Leading Zero, , ,SW,028, , ,Porter,St,Portland,OR,97201.000000000000000, ,7643991.093999999600000,676351.903900000030000,45.5012207418929,-122.677009602495
293,Residential Addresses,MAF - Leading Zero, , ,SW,0535, , ,Vermont,St,Portland,OR,97219.000000000000000, ,7644750.588999999700000,667149.242100000030000,45.4760458152391,-122.673083173054
294,Residential Addresses,MAF - Leading Zero, , ,SW,0549, , ,Nevada,St,Portland,OR,97219.000000000000000, ,7644746.193000000000000,666107.512100000050000,45.4731893600136,-122.672991086449
295,Residential Addresses,MAF - Leading Zero, , ,SW,0240, , ,Canby,St,Portland,OR,97219.000000000000000, ,7644052.523000000000000,664281.064000000010000,45.468130554215,-122.675502535063
296,Residential Addresses,MAF - Leading Zero, , ,SW,0210, , ,Gaines,St,Portland,OR,97239.000000000000000, ,7644275.894000000300000,674569.129900000060000,45.4963539534978,-122.675711994354
297,Residential Addresses,MAF - Leading Zero, , ,SW,010, , ,Boundary,St,Portland,OR,97239.000000000000000, ,7643688.188000000100000,670390.362899999950000,45.4848535899875,-122.677563954427
298,Residential Addresses,MAF - Leading Zero, , ,SW,0525, , ,Nevada,St,Portland,OR,97219.000000000000000, ,7644661.000000000000000,666111.000000000000000,45.4731926385075,-122.673323439545
299,Residential Addresses,MAF - Leading Zero, , ,SW,0243, , ,Palatine Hill,Rd,Portland,OR,97219.000000000000000, ,7643776.076999999600000,660503.699200000030000,45.4577536410584,-122.676183159671
300,Residential Addresses,MAF - Leading Zero, , ,SW,023, , ,Whitaker,St,Portland,OR,97239.000000000000000, ,7643890.088999999700000,675480.399899999960000,45.4988238782266,-122.67731180774
301,Residential Addresses,MAF - Leading Zero, , ,SW,0415, , ,Vermont,St,Portland,OR,97219.000000000000000, ,7644390.826000000400000,667162.837900000040000,45.4760565451404,-122.67448662463
302,Residential Addresses,MAF - Leading Zero, , ,SW,0230, , ,Canby,St,Portland,OR,97219.000000000000000, ,7643952.571000000500000,664284.189000000010000,45.4681317404037,-122.675892329604
303,Residential Addresses,MAF - Leading Zero, , ,SW,0660, , ,Palatine Hill,Rd,Portland,OR,97219.000000000000000, ,7644165.321000000500000,656749.329999999960000,45.4474889034607,-122.674273007547
304,Residential Addresses,MAF - Leading Zero, , ,SW,0407, , ,Florida,St,Portland,OR,97219.000000000000000, ,7644327.809999999600000,666904.622100000040000,45.4753439390259,-122.674705109555
305,Residential Addresses,MAF - Leading Zero, , ,SW,0247, , ,Florida,St,Portland,OR,97219.000000000000000, ,7644010.855999999700000,666916.837900000040000,45.4753540275547,-122.675941571242
306,Residential Addresses,MAF - Leading Zero, , ,SW,0615, , ,Nevada,St,Portland,OR,97219.000000000000000, ,7644882.702999999700000,666102.170000000040000,45.4731847812698,-122.672458562525
307,Residential Addresses,MAF - Leading Zero, , ,SW,0405, , ,California,St,Portland,OR,97219.000000000000000, ,7644345.741000000400000,666643.453100000040000,45.4746292110759,-122.67460783009
308,Residential Addresses,MAF - Leading Zero, , ,SW,0516, , ,Nebraska,St,Portland,OR,97239.000000000000000, ,7644688.646999999900000,667512.081000000010000,45.4770360476297,-122.673362613718
309,Residential Addresses,MAF - Leading Zero, , ,SW,0651, , ,Bancroft,St,Portland,OR,97239.000000000000000, ,7645339.139999999700000,673422.056100000050000,45.4932874635095,-122.671446734258
310,Residential Addresses,MAF - Leading Zero, , ,SW,0648, , ,Palatine Hill,Rd,Portland,OR,97219.000000000000000, ,7644409.676000000000000,657040.867100000030000,45.4483062523844,-122.673351769783
311,Residential Addresses,MAF - Leading Zero, , ,SW,0120, , ,Palatine Hill,Rd,Portland,OR,97219.000000000000000, ,7643481.961000000100000,660908.748999999950000,45.4588424452544,-122.67737152194
312,Residential Addresses,MAF - Leading Zero, , ,SW,0400, , ,Palatine Hill,Rd,Portland,OR,97219.000000000000000, ,7644049.468999999600000,659595.370099999940000,45.4552834378366,-122.675022781787
313,Residential Addresses,MAF - Leading Zero, , ,SW,0110, , ,Curry,St,Portland,OR,97239.000000000000000, ,7644034.042000000400000,675098.528900000030000,45.4977875409833,-122.676710465779
314,Residential Addresses,MAF - Leading Zero, , ,SW,0401, , ,Nebraska,St,Portland,OR,97239.000000000000000, ,7644360.472000000100000,667684.450100000020000,45.477484417125,-122.674659646029
315,Residential Addresses,MAF - Leading Zero, , ,SW,0541, , ,Florida,St,Portland,OR,97219.000000000000000, ,7644745.671000000100000,666885.637100000050000,45.4753227218428,-122.67307470068
316,Residential Addresses,MAF - Leading Zero, , ,SW,0520, , ,Nebraska,St,Portland,OR,97239.000000000000000, ,7644688.646999999900000,667512.081000000010000,45.4770360476297,-122.673362613718
317,Residential Addresses,MAF - Leading Zero, , ,SW,0604, , ,California,St,Portland,OR,97219.000000000000000, ,7644825.169999999900000,666464.670900000030000,45.4741744144119,-122.672720761141
318,Residential Addresses,MAF - Leading Zero, , ,SW,015, , ,Bancroft,St,Portland,OR,97239.000000000000000, ,7643805.838999999700000,673193.908100000000000,45.4925487783594,-122.677399962636
319,Residential Addresses,MAF - Leading Zero, , ,SW,0405, , ,Vermont,St,Portland,OR,97219.000000000000000, ,7644340.861999999700000,667164.726999999960000,45.4760580364536,-122.674681536569
320,Residential Addresses,MAF - Leading Zero, , ,SW,0415, , ,Riverside,St,Portland,OR,97219.000000000000000, ,7644123.439000000200000,657918.504900000060000,45.4506913814757,-122.674558749787
321,Residential Addresses,MAF - Leading Zero, , ,SW,0314, , ,Idaho,St,Portland,OR,97239.000000000000000, ,7644134.555999999900000,667272.667999999950000,45.4763387481268,-122.67549685736
322,Residential Addresses,MAF - Leading Zero, , ,SW,0536, , ,Vermont,St,Portland,OR,97219.000000000000000, ,7644748.241000000400000,666973.732899999940000,45.4755644452891,-122.673073921776
323,Residential Addresses,MAF - Leading Zero, , ,SW,0530, , ,Florida,St,Portland,OR,97219.000000000000000, ,7644696.870000000100000,666730.165000000040000,45.4748928612385,-122.67324857784
324,Residential Addresses,MAF - Leading Zero, , ,SW,0333, , ,Idaho,St,Portland,OR,97239.000000000000000, ,7644233.111999999700000,667429.098099999940000,45.4767749122508,-122.675129191683
325,Residential Addresses,MAF - Leading Zero, , ,SW,0523, , ,Texas,St,Portland,OR,97219.000000000000000, ,7644676.913999999900000,666370.354000000050000,45.4739048884393,-122.673288618331
326,Residential Addresses,MAF - Leading Zero, , ,SW,0450, , ,Palatine Hill,Rd,Portland,OR,97219.000000000000000, ,7643975.883999999600000,658835.940900000050000,45.453195853495,-122.675229769833
327,Residential Addresses,MAF - Leading Zero, , ,SW,0603, , ,Texas,St,Portland,OR,97219.000000000000000, ,7644835.308000000200000,666386.268000000040000,45.4739602033143,-122.672673035294
328,Residential Addresses,MAF - Leading Zero, , ,SW,0317, , ,Flower,St,Portland,OR,97239.000000000000000, ,7644261.458999999800000,669570.036100000030000,45.4826468434384,-122.675243417777
329,Residential Addresses,MAF - Leading Zero, , ,SW,0602, , ,Vermont,St,Portland,OR,97219.000000000000000, ,7644858.980999999700000,666975.045900000030000,45.4755762128891,-122.67264250017
330,Residential Addresses,MAF - Leading Zero, , ,SW,019, , ,Canby,St,Portland,OR,97219.000000000000000, ,7643670.686999999900000,664429.074200000030000,45.4685081501458,-122.677005916379
331,Residential Addresses,MAF - Leading Zero, , ,SW,018, , ,Grover,St,Portland,OR,97239.000000000000000, ,7643857.688000000100000,675806.840899999950000,45.4997164856795,-122.677472436917
332,Residential Addresses,MAF - Leading Zero, , ,SW,0218, , ,Clara Mae,Way,Portland,OR,97219.000000000000000, ,7643886.525999999600000,660583.053199999970000,45.4579793661595,-122.67576119739
333,Residential Addresses,MAF - Leading Zero, , ,SW,0250, , ,Palatine Hill,Rd,Portland,OR,97219.000000000000000, ,7643546.052000000100000,660379.956000000010000,45.457397375663,-122.677066302554
334,Residential Addresses,MAF - Leading Zero, , ,SW,0418, , ,Texas,St,Portland,OR,97219.000000000000000, ,7644354.501000000200000,666222.661100000030000,45.473476164664,-122.674529545267
335,Residential Addresses,MAF - Leading Zero, , ,SW,04, , ,Hamilton,St,Portland,OR,97239.000000000000000, ,7643724.923000000400000,672521.798900000050000,45.4907000742285,-122.677644752629
336,Residential Addresses,MAF - Leading Zero, , ,SW,0628, , ,Palatine Hill,Rd,Portland,OR,97219.000000000000000, ,7644488.470999999900000,657498.667000000020000,45.4495672321566,-122.673092824997
337,Residential Addresses,MAF - Leading Zero, , ,SW,021, , ,Bancroft,St,Portland,OR,97239.000000000000000, ,7643841.434000000400000,673200.823199999980000,45.4925703682315,-122.677261932552
338,Residential Addresses,MAF - Leading Zero, , ,SW,017, , ,Curry,St,Portland,OR,97239.000000000000000, ,7643839.781999999700000,675235.183100000020000,45.498147849849,-122.677482163809
339,Residential Addresses,MAF - Leading Zero, , ,SW,0215, , ,Gibbs,St,Portland,OR,97239.000000000000000, ,7644387.945000000300000,675714.851099999970000,45.4995034511458,-122.675395463501
340,Residential Addresses,MAF - Leading Zero, , ,SW,0704, , ,Palatine Hill,Rd,Portland,OR,97219.000000000000000, ,7644417.661999999500000,656215.075100000020000,45.4460427356192,-122.673234116855
341,Residential Addresses,MAF - Leading Zero, , ,SW,0348, , ,Vermont,St,Portland,OR,97219.000000000000000, ,7644299.699000000000000,667005.905799999950000,45.4756195550794,-122.674825286728
342,Residential Addresses,MAF - Leading Zero, , ,SW,0543, , ,Texas,St,Portland,OR,97219.000000000000000, ,7644760.847000000100000,666367.113800000050000,45.4739021960326,-122.672961197179
343,Residential Addresses,MAF - Leading Zero, , ,SW,037, , ,Whitaker,St,Portland,OR,97239.000000000000000, ,7643948.239000000100000,675479.290000000040000,45.4988251326576,-122.677084985255
344,Residential Addresses,MAF - Leading Zero, , ,SW,0404, , ,Dakota,St,Portland,OR,97239.000000000000000, ,7644364.294999999900000,667784.342900000050000,45.4777585769484,-122.674655228469
345,Residential Addresses,MAF - Leading Zero, , ,SW,0611, , ,Nevada,St,Portland,OR,97219.000000000000000, ,7644846.205000000100000,666096.867100000030000,45.4731675506641,-122.672600235234
346,Residential Addresses,MAF - Leading Zero, , ,SW,0683, , ,Lowell,St,Portland,OR,97239.000000000000000, ,7645347.936999999900000,673739.498999999950000,45.494158447096,-122.671445709326
347,Residential Addresses,MAF - Leading Zero, , ,SW,0664, , ,Palatine Hill,Rd,Portland,OR,97219.000000000000000, ,7644482.398000000000000,656683.172900000010000,45.4473309130126,-122.673031020287
348,Residential Addresses,MAF - Leading Zero, , ,SW,0607, , ,Nevada,St,Portland,OR,97219.000000000000000, ,7644807.885999999900000,666105.055100000000000,45.4731871738563,-122.672750418281
349,Residential Addresses,MAF - Leading Zero, , ,SW,0222, , ,California,St,Portland,OR,97219.000000000000000, ,7643919.832999999600000,666499.787099999960000,45.4742038691689,-122.676252500658
350,Residential Addresses,MAF - Leading Zero, , ,SW,0216, , ,Pendleton,St,Portland,OR,97239.000000000000000, ,7643950.712000000300000,668973.240200000000000,45.4809876508768,-122.676391888468
351,Residential Addresses,MAF - Leading Zero, , ,SW,05, , ,Mitchell,St,Portland,OR,97239.000000000000000, ,7643720.161999999500000,670782.814999999940000,45.4859319419578,-122.677480567269
352,Residential Addresses,MAF - Leading Zero, , ,SW,0511, , ,Nevada,St,Portland,OR,97219.000000000000000, ,7644610.468000000300000,666112.738800000050000,45.4731936778096,-122.673520539303
353,Residential Addresses,MAF - Leading Zero, , ,SW,0632, , ,Palatine Hill,Rd,Portland,OR,97219.000000000000000, ,7644481.793999999800000,657388.820900000050000,45.4492655704816,-122.673107321839
354,Residential Addresses,MAF - Leading Zero, , ,SW,025, , ,Gibbs,St,Portland,OR,97239.000000000000000, ,7643903.230999999700000,675749.079099999970000,45.4995614863937,-122.677288807999
355,Residential Addresses,MAF - Leading Zero, , ,SW,0134, , ,Ridge,Dr,Portland,OR,97219.000000000000000, ,7643483.361999999700000,659119.349099999990000,45.4539365001615,-122.67717815307
356,Residential Addresses,MAF - Leading Zero, , ,SW,0117, , ,Whitaker,St,Portland,OR,97239.000000000000000, ,7644114.724000000400000,675459.308100000020000,45.4987826495382,-122.676433821072
357,Residential Addresses,MAF - Leading Zero, , ,SW,0123, , ,Curry,St,Portland,OR,97239.000000000000000, ,7644168.689000000200000,675205.556100000050000,45.4980909246685,-122.676196777072
358,Residential Addresses,MAF - Leading Zero, , ,SW,0322, , ,Whitaker,St,Portland,OR,97239.000000000000000, ,7644658.332999999600000,675330.288100000010000,45.4984690559223,-122.674300945007
359,Residential Addresses,MAF - Leading Zero, , ,SW,0545, , ,Nevada,St,Portland,OR,97219.000000000000000, ,7644765.628999999700000,666098.270999999950000,45.4731654570855,-122.672914377788
360,Residential Addresses,MAF - Leading Zero, , ,SW,0306, , ,Idaho,St,Portland,OR,97239.000000000000000, ,7644084.592000000200000,667274.545000000040000,45.4763402045505,-122.675691769024
361,Residential Addresses,MAF - Leading Zero, , ,SW,0509, , ,Taylors Ferry,Rd,Portland,OR,97219.000000000000000, ,7644613.298999999600000,664325.228000000000000,45.4682930298179,-122.673322079955
362,Residential Addresses,MAF - Leading Zero, , ,SW,0245, , ,Idaho,St,Portland,OR,97239.000000000000000, ,7644025.756000000100000,667436.886199999950000,45.4767809524616,-122.675938102212
363,Residential Addresses,MAF - Leading Zero, , ,SW,0332, , ,Vermont,St,Portland,OR,97219.000000000000000, ,7644219.646999999900000,667008.979000000050000,45.4756220708508,-122.675137575884
364,Residential Addresses,MAF - Leading Zero, , ,SW,0724, , ,Castleridge,Ln,Portland,OR,97219.000000000000000, ,7645779.144000000300000,651383.273000000040000,45.432895458606,-122.667426082072
365,Residential Addresses,MAF - Leading Zero, , ,SW,0650, , ,Gaines,St,Portland,OR,97239.000000000000000, ,7645377.541000000200000,674504.219200000050000,45.4962572664194,-122.671410446128
366,Residential Addresses,MAF - Leading Zero, , ,SW,0235, , ,Nebraska,St,Portland,OR,97239.000000000000000, ,7643990.730000000400000,667698.368099999960000,45.4774952740344,-122.676102057186
367,Residential Addresses,MAF - Leading Zero, , ,SW,0537, , ,Texas,St,Portland,OR,97219.000000000000000, ,7644718.881000000100000,666368.734900000040000,45.4739035451312,-122.673124905907
368,Residential Addresses,MAF - Leading Zero, , ,SW,0526, , ,California,St,Portland,OR,97219.000000000000000, ,7644674.662999999700000,666478.143000000040000,45.4742002495532,-122.673308692487
369,Residential Addresses,MAF - Leading Zero, , ,SW,0125, , ,Vermont,St,Portland,OR,97219.000000000000000, ,7643703.706000000200000,667193.817900000020000,45.4760907351369,-122.677167638589
370,Residential Addresses,MAF - Leading Zero, , ,SW,05, , ,Custer,St,Portland,OR,97219.000000000000000, ,7643623.183000000200000,664788.431100000050000,45.4694898953718,-122.677228763081
371,Residential Addresses,MAF - Leading Zero, , ,SW,0403, , ,Idaho,St,Portland,OR,97239.000000000000000, ,7644350.530000000300000,667424.689000000010000,45.4767714921508,-122.674671135883
372,Residential Addresses,MAF - Leading Zero, , ,SW,0344, , ,Texas,St,Portland,OR,97219.000000000000000, ,7644254.576000000400000,666226.509800000000000,45.4734793403287,-122.674919347168
373,Residential Addresses,MAF - Leading Zero, , ,SW,0514, , ,Texas,St,Portland,OR,97219.000000000000000, ,7644611.030000000300000,666203.525900000010000,45.4734426320397,-122.673527869525
374,Residential Addresses,MAF - Leading Zero, , ,SW,0547, , ,Florida,St,Portland,OR,97219.000000000000000, ,7644790.487999999900000,666886.810999999990000,45.4753292460592,-122.672900170447
375,Residential Addresses,MAF - Leading Zero, , ,SW,0608, , ,Texas,St,Portland,OR,97219.000000000000000, ,7644836.667999999600000,666204.095100000040000,45.4734608365216,-122.672648639599
376,Residential Addresses,MAF - Leading Zero, , ,SW,0321, , ,Vermont,St,Portland,OR,97219.000000000000000, ,7644180.347000000100000,667171.576099999950000,45.4760649641844,-122.675307795165
377,Residential Addresses,MAF - Leading Zero, , ,SW,0426, , ,Nevada,St,Portland,OR,97219.000000000000000, ,7644420.898000000000000,665970.034100000050000,45.4727884330602,-122.674244302262
378,Residential Addresses,MAF - Leading Zero, , ,SW,0116, , ,Grover,St,Portland,OR,97239.000000000000000, ,7644136.504999999900000,675869.823199999980000,45.4999097668375,-122.676392029121
379,Residential Addresses,MAF - Leading Zero, , ,SW,0235, , ,Palatine Hill,Rd,Portland,OR,97219.000000000000000, ,7643766.605999999700000,660653.895000000020000,45.458164737512,-122.676235822443
380,Residential Addresses,MAF - Leading Zero, , ,SW,0334, , ,Idaho,St,Portland,OR,97239.000000000000000, ,7644234.644999999600000,667268.915000000040000,45.4763358489155,-122.675106406736
381,Residential Addresses,MAF - Leading Zero, , ,SW,0518, , ,Florida,St,Portland,OR,97219.000000000000000, ,7644657.324000000000000,666727.367100000030000,45.4748822728074,-122.673402395303
382,Residential Addresses,MAF - Leading Zero, , ,SW,0238, , ,Palatine Hill,Rd,Portland,OR,97219.000000000000000, ,7643580.121000000300000,660558.747100000040000,45.4578900897918,-122.676952349605
383,Residential Addresses,MAF - Leading Zero, , ,SW,0536, , ,Nebraska,St,Portland,OR,97239.000000000000000, ,7644762.321999999700000,667509.243099999960000,45.4770337017732,-122.673075193666
384,Residential Addresses,MAF - Leading Zero, , ,SW,0211, , ,California,St,Portland,OR,97219.000000000000000, ,7643885.654000000100000,666641.092900000050000,45.4745887646435,-122.676400532245
385,Residential Addresses,MAF - Leading Zero, , ,SW,0515, , ,Taylors Ferry,Rd,Portland,OR,97219.000000000000000, ,7644578.633999999600000,664375.439000000010000,45.4684281371069,-122.673462418553
386,Residential Addresses,MAF - Leading Zero, , ,SW,0936, , ,Comus,St,Portland,OR,97219.000000000000000, ,7645614.502999999600000,656372.014100000030000,45.4465612174387,-122.668588795367
387,Residential Addresses,MAF - Leading Zero, , ,SW,0103, , ,Meade,St,Portland,OR,97201.000000000000000, ,7644217.462000000300000,677056.728000000000000,45.5031698793167,-122.676201075757
388,Residential Addresses,MAF - Leading Zero, , ,SW,05, , ,Richardson,St,Portland,OR,97239.000000000000000, ,7643722.201000000400000,671315.751999999980000,45.4873932492414,-122.67752862089
389,Residential Addresses,MAF - Leading Zero, , ,SW,05, , ,Boundary,St,Portland,OR,97239.000000000000000, ,7643688.394000000300000,670521.159100000050000,45.4852122100927,-122.677576895643
390,Residential Addresses,MAF - Leading Zero, , ,SW,0929, , ,Powers,Ct,Portland,OR,97219.000000000000000, ,7645619.154000000100000,654121.336000000010000,45.4403907726425,-122.668335338928
391,Residential Addresses,MAF - Leading Zero, , ,SW,0244, , ,Dakota,St,Portland,OR,97239.000000000000000, ,7644049.515999999800000,667796.207000000050000,45.4777678623891,-122.675883229351
392,Residential Addresses,MAF - Leading Zero, , ,SW,0102, , ,Abernethy,St,Portland,OR,97239.000000000000000, ,7643983.074000000000000,674043.636199999950000,45.4948915763726,-122.676798333683